*******************************************************************************
JPL/HORIZONS               29 Amphitrite (A854 EB)         2020-Jun-20 07:54:48
Rec #:      29 (+COV) Soln.date: 2020-Feb-22_15:15:03   # obs: 2367 (1855-2020)
 
IAU76/J2000 helio. ecliptic osc. elements (au, days, deg., period=Julian yrs):
 
  EPOCH=  2451065.5 ! 1998-Sep-09.00 (TDB)         Residual RMS= .2779
   EC= .07320939525819846  QR= 2.36757480896916    TP= 2451454.0850965125
   OM= 356.5901477726211   W=  62.74765533643773   IN= 6.107663186725182
   A= 2.554595177007381    MA= 266.1990834409759   ADIST= 2.741615545045601
   PER= 4.08311            N= .24139092            ANGMOM= .02742051
   DAN= 2.45849            DDN= 2.62904            L= 59.204813
   B= 5.4275392            MOID= 1.38624001        TP= 1999-Oct-02.5850965125
 
Asteroid physical parameters (km, seconds, rotational period in hours):
   GM= n.a.                RAD= 94.7795            ROTPER= 5.3921
   H= 5.9                  G= .200                 B-V= .838
                           ALBEDO= .216            STYP= S
 
ASTEROID comments: 
1: soln ref.= JPL#145, OCC=0
2: source=ORB
*******************************************************************************
 
 
*******************************************************************************
Ephemeris / WWW_USER Sat Jun 20 07:54:48 2020 Pasadena, USA      / Horizons
*******************************************************************************
Target body name: 29 Amphitrite (A854 EB)         {source: JPL#145}
Center body name: Solar System Barycenter (0)     {source: DE431}
Center-site name: BODY CENTER
*******************************************************************************
Start time      : A.D. 1969-Jun-28 00:00:00.0000 TDB
Stop  time      : A.D. 2071-May-04 00:00:00.0000 TDB
Step-size       : 7200 minutes
*******************************************************************************
Center geodetic : 0.00000000,0.00000000,0.0000000 {E-lon(deg),Lat(deg),Alt(km)}
Center cylindric: 0.00000000,0.00000000,0.0000000 {E-lon(deg),Dxy(km),Dz(km)}
Center radii    : (undefined)                                                  
Small perturbers: Yes                             {source: SB431-N16}
Output units    : AU-D
Output type     : GEOMETRIC cartesian states
Output format   : 2 (position and velocity)
Reference frame : Ecliptic of J2000.0
*******************************************************************************
Initial IAU76/J2000 heliocentric ecliptic osculating elements (au, days, deg.):
  EPOCH=  2451065.5 ! 1998-Sep-09.00 (TDB)         Residual RMS= .2779         
   EC= .07320939525819846  QR= 2.36757480896916    TP= 2451454.0850965125      
   OM= 356.5901477726211   W=  62.74765533643773   IN= 6.107663186725182       
  Equivalent ICRF heliocentric equatorial cartesian coordinates (au, au/d):
   X= 1.895322737690323E+00  Y=-1.529478448601609E+00  Z=-8.528282468099375E-01
  VX= 6.643441667198405E-03 VY= 7.225986976233770E-03 VZ= 4.142621732139211E-03
Asteroid physical parameters (km, seconds, rotational period in hours):        
   GM= n.a.                RAD= 94.7795            ROTPER= 5.3921              
   H= 5.9                  G= .200                 B-V= .838                   
                           ALBEDO= .216            STYP= S                     
*******************************************************************************
            JDTDB,            Calendar Date (TDB),        delta-T,                      X,                      Y,                      Z,                     VX,                     VY,                     VZ,
******************************************************************************************************************************************************************************************************************
$$SOE
2459020.500000000, A.D. 2020-Jun-20 00:00:00.0000,      69.184415,  2.383061750636481E-02,  2.383093692432668E+00,  2.529180285080715E-01, -1.147725853442283E-02,  5.307091365772366E-04, -2.104585350624162E-05,
2459025.500000000, A.D. 2020-Jun-25 00:00:00.0000,      69.184277, -3.355834419863034E-02,  2.385103469644035E+00,  2.527443330649793E-01, -1.147729111844465E-02,  2.732723137573503E-04, -4.841777373118377E-05,
2459030.500000000, A.D. 2020-Jun-30 00:00:00.0000,      69.184137, -9.093197048332743E-02,  2.385827257981481E+00,  2.524340106294689E-01, -1.147112995418234E-02,  1.634087201178856E-05, -7.569378686460235E-05,
2459035.500000000, A.D. 2020-Jul-05 00:00:00.0000,      69.183993, -1.482593806085094E-01,  2.385267991938619E+00,  2.519875834831878E-01, -1.145881107524389E-02, -2.399224966799829E-04, -1.028568366253470E-04,
2459040.500000000, A.D. 2020-Jul-10 00:00:00.0000,      69.183850, -2.055098863901315E-01,  2.383429414172236E+00,  2.514056585413377E-01, -1.144037544909854E-02, -4.953572481584112E-04, -1.298901288294474E-04,
2459045.500000000, A.D. 2020-Jul-15 00:00:00.0000,      69.183709, -2.626530165479262E-01,  2.380316064332844E+00,  2.506889259985841E-01, -1.141586884764933E-02, -7.498051568960792E-04, -1.567771486822870E-04,
2459050.500000000, A.D. 2020-Jul-20 00:00:00.0000,      69.183572, -3.196585403901318E-01,  2.375933267061277E+00,  2.498381578907649E-01, -1.138534171120387E-02, -1.003110478725675E-03, -1.835016771632260E-04,
2459055.500000000, A.D. 2020-Jul-25 00:00:00.0000,      69.183437, -3.764964908027811E-01,  2.370287119192354E+00,  2.488542065769986E-01, -1.134884900643113E-02, -1.255120105251115E-03, -2.100478064770058E-04,
2459060.500000000, A.D. 2020-Jul-30 00:00:00.0000,      69.183306, -4.331371865150910E-01,  2.363384476207792E+00,  2.477380031469326E-01, -1.130645007896044E-02, -1.505683709680134E-03, -2.363999545377940E-04,
2459065.500000000, A.D. 2020-Aug-04 00:00:00.0000,      69.183177, -4.895512536159424E-01,  2.355232937982336E+00,  2.464905557581075E-01, -1.125820850132724E-02, -1.754653883591873E-03, -2.625428784295770E-04,
2459070.500000000, A.D. 2020-Aug-09 00:00:00.0000,      69.183055, -5.457096462992981E-01,  2.345840833870200E+00,  2.451129479086531E-01, -1.120419191658645E-02, -2.001886263973760E-03, -2.884616868174542E-04,
2459075.500000000, A.D. 2020-Aug-14 00:00:00.0000,      69.182940, -6.015836668160270E-01,  2.335217207180064E+00,  2.436063366502812E-01, -1.114447187718923E-02, -2.247239651034118E-03, -3.141418514623841E-04,
2459080.500000000, A.D. 2020-Aug-19 00:00:00.0000,      69.182834, -6.571449846091747E-01,  2.323371799079652E+00,  2.419719507455480E-01, -1.107912367984117E-02, -2.490576118814944E-03, -3.395692179875485E-04,
2459085.500000000, A.D. 2020-Aug-24 00:00:00.0000,      69.182737, -7.123656546189849E-01,  2.310315031965920E+00,  2.402110887736964E-01, -1.100822619889494E-02, -2.731761117853166E-03, -3.647300156124190E-04,
2459090.500000000, A.D. 2020-Aug-29 00:00:00.0000,      69.182647, -7.672181347525965E-01,  2.296057992347756E+00,  2.383251171909102E-01, -1.093186171864521E-02, -2.970663567297994E-03, -3.896108656692607E-04,
2459095.500000000, A.D. 2020-Sep-03 00:00:00.0000,      69.182565, -8.216753025102803E-01,  2.280612413294032E+00,  2.363154683506122E-01, -1.085011576360101E-02, -3.207155936915386E-03, -4.141987891055337E-04,
2459100.500000000, A.D. 2020-Sep-08 00:00:00.0000,      69.182493, -8.757104707587171E-01,  2.263990656493972E+00,  2.341836384885001E-01, -1.076307692718918E-02, -3.441114320294736E-03, -4.384812130889365E-04,
2459105.500000000, A.D. 2020-Sep-13 00:00:00.0000,      69.182434, -9.292974026458460E-01,  2.246205693972742E+00,  2.319311856768409E-01, -1.067083669981509E-02, -3.672418499533332E-03, -4.624459766937647E-04,
2459110.500000000, A.D. 2020-Sep-18 00:00:00.0000,      69.182388, -9.824103256558432E-01,  2.227271089505139E+00,  2.295597277526795E-01, -1.057348929694370E-02, -3.900952001306134E-03, -4.860813356473162E-04,
2459115.500000000, A.D. 2020-Sep-23 00:00:00.0000,      69.182352, -1.035023944805575E+00,  2.207200979770533E+00,  2.270709402246595E-01, -1.047113148767949E-02, -4.126602144296998E-03, -5.093759661411975E-04,
2459120.500000000, A.D. 2020-Sep-28 00:00:00.0000,      69.182328, -1.087113454986038E+00,  2.186010055292113E+00,  2.244665541630821E-01, -1.036386242424343E-02, -4.349260078065137E-03, -5.323189677293408E-04,
2459125.500000000, A.D. 2020-Oct-03 00:00:00.0000,      69.182314, -1.138654552454127E+00,  2.163713541202922E+00,  2.217483540776844E-01, -1.025178347267110E-02, -4.568820813493260E-03, -5.548998653492146E-04,
2459130.500000000, A.D. 2020-Oct-08 00:00:00.0000,      69.182313, -1.189623445481450E+00,  2.140327177880245E+00,  2.189181757874017E-01, -1.013499804497062E-02, -4.785183245045080E-03, -5.771086105192089E-04,
2459135.500000000, A.D. 2020-Oct-13 00:00:00.0000,      69.182326, -1.239996864167926E+00,  2.115867201488471E+00,  2.159779042860496E-01, -1.001361143289324E-02, -4.998250165194036E-03, -5.989355817839702E-04,
2459140.500000000, A.D. 2020-Oct-18 00:00:00.0000,      69.182352, -1.289752069428522E+00,  2.090350324468308E+00,  2.129294716074964E-01, -9.887730643448153E-03, -5.207928271553272E-03, -6.203715844890311E-04,
2459145.500000000, A.D. 2020-Oct-23 00:00:00.0000,      69.182390, -1.338866861162398E+00,  2.063793716007189E+00,  2.097748546934868E-01, -9.757464236409717E-03, -5.414128167392284E-03, -6.414078499520904E-04,
2459150.500000000, A.D. 2020-Oct-28 00:00:00.0000,      69.182439, -1.387319585615604E+00,  2.036214982522180E+00,  2.065160732670590E-01, -9.622922164355082E-03, -5.616764356217270E-03, -6.620360340519492E-04,
2459155.500000000, A.D. 2020-Nov-02 00:00:00.0000,      69.182498, -1.435089141952208E+00,  2.007632148184079E+00,  2.031551877145704E-01, -9.484215616183490E-03, -5.815755230698544E-03, -6.822482151840938E-04,
